{
  "type": "FeatureCollection",
  "features": [
    {
      "type": "Feature",
      "properties": {
        "norad_id": 66549,
        "name": "SHIJIAN-28 (SJ-28)",
        "group": "last-30-days",
        "lat": 2.1630385196661663,
        "lon": 69.30863883888405,
        "alt_km": 35784.17316626108,
        "timestamp": "2025-12-26T14:28:46.393279+00:00",
        "meta_object_name": "SHIJIAN-28 (SJ-28)",
        "meta_object_id": "2025-277A",
        "meta_epoch": "2025-12-25T13:29:07.948320",
        "meta_mean_motion": 1.0026485,
        "meta_eccentricity": 9.97e-05,
        "meta_inclination": 4.9871,
        "meta_ra_of_asc_node": 274.7549,
        "meta_arg_of_pericenter": 127.1328,
        "meta_mean_anomaly": 11.4336,
        "meta_ephemeris_type": 0,
        "meta_classification_type": "U",
        "meta_norad_cat_id": 66549,
        "meta_element_set_no": 999,
        "meta_rev_at_epoch": 41,
        "meta_bstar": 0,
        "meta_mean_motion_dot": -3.37e-06,
        "meta_mean_motion_ddot": 0,
        "tle_line1": "1 66549U 25277A   25359.56189755 -.00000337  00000+0  00000+0 0  9995",
        "tle_line2": "2 66549   4.9871 274.7549 0000997 127.1328  11.4336  1.00264850   417"
      },
      "geometry": {
        "type": "Point",
        "coordinates": [
          69.30863883888405,
          2.1630385196661663
        ]
      }
    },
    {
      "type": "Feature",
      "properties": {
        "norad_id": 66550,
        "name": "CZ-7A R/B",
        "group": "last-30-days",
        "lat": 7.134546811393756,
        "lon": -69.24981280631414,
        "alt_km": 19695.451399127363,
        "timestamp": "2025-12-26T14:28:46.393336+00:00",
        "meta_object_name": "CZ-7A R/B",
        "meta_object_id": "2025-277B",
        "meta_epoch": "2025-12-23T05:53:12.433056",
        "meta_mean_motion": 3.27661077,
        "meta_eccentricity": 0.66094342,
        "meta_inclination": 14.3426,
        "meta_ra_of_asc_node": 263.9223,
        "meta_arg_of_pericenter": 200.4471,
        "meta_mean_anomaly": 110.5172,
        "meta_ephemeris_type": 0,
        "meta_classification_type": "U",
        "meta_norad_cat_id": 66550,
        "meta_element_set_no": 999,
        "meta_rev_at_epoch": 65,
        "meta_bstar": 0.0068493476,
        "meta_mean_motion_dot": 0.10979967,
        "meta_mean_motion_ddot": 1.8894821e-05,
        "tle_line1": "1 66550U 25277B   25357.24528279  .10979967  18895-4  68493-2 0  9991",
        "tle_line2": "2 66550  14.3426 263.9223 6609434 200.4471 110.5172  3.27661077   658"
      },
      "geometry": {
        "type": "Point",
        "coordinates": [
          -69.24981280631414,
          7.134546811393756
        ]
      }
    },
    {
      "type": "Feature",
      "properties": {
        "norad_id": 66554,
        "name": "GLOBAL-33",
        "group": "last-30-days",
        "lat": -41.441995467950875,
        "lon": -101.72624901758137,
        "alt_km": 473.6795097453987,
        "timestamp": "2025-12-26T14:28:46.393364+00:00",
        "meta_object_name": "GLOBAL-33",
        "meta_object_id": "2025-267A",
        "meta_epoch": "2025-12-26T07:00:36.918144",
        "meta_mean_motion": 15.31789204,
        "meta_eccentricity": 0.00049594,
        "meta_inclination": 42.0213,
        "meta_ra_of_asc_node": 338.7502,
        "meta_arg_of_pericenter": 185.8962,
        "meta_mean_anomaly": 174.1818,
        "meta_ephemeris_type": 0,
        "meta_classification_type": "U",
        "meta_norad_cat_id": 66554,
        "meta_element_set_no": 999,
        "meta_rev_at_epoch": 548,
        "meta_bstar": 0.00047882598,
        "meta_mean_motion_dot": 0.00014797,
        "meta_mean_motion_ddot": 0,
        "tle_line1": "1 66554U 25267A   25360.29209396  .00014797  00000+0  47883-3 0  9994",
        "tle_line2": "2 66554  42.0213 338.7502 0004959 185.8962 174.1818 15.31789204  5481"
      },
      "geometry": {
        "type": "Point",
        "coordinates": [
          -101.72624901758137,
          -41.441995467950875
        ]
      }
    },
    {
      "type": "Feature",
      "properties": {
        "norad_id": 66557,
        "name": "STARLINK-35699",
        "group": "last-30-days",
        "lat": 38.5430563198401,
        "lon": 161.53599765909274,
        "alt_km": 458.7056836742522,
        "timestamp": "2025-12-26T14:28:46.393377+00:00",
        "meta_object_name": "STARLINK-35699",
        "meta_object_id": "2025-268A",
        "meta_epoch": "2025-12-26T06:00:02.999808",
        "meta_mean_motion": 15.35490008,
        "meta_eccentricity": 0.00012239,
        "meta_inclination": 43.0005,
        "meta_ra_of_asc_node": 42.303,
        "meta_arg_of_pericenter": 256.1046,
        "meta_mean_anomaly": 63.6506,
        "meta_ephemeris_type": 0,
        "meta_classification_type": "U",
        "meta_norad_cat_id": 66557,
        "meta_element_set_no": 999,
        "meta_rev_at_epoch": 606,
        "meta_bstar": -0.064142997,
        "meta_mean_motion_dot": -0.02042558,
        "meta_mean_motion_ddot": 0,
        "tle_line1": "1 66557U 25268A   25360.25003472 -.02042558  00000+0 -64143-1 0  9997",
        "tle_line2": "2 66557  43.0005  42.3030 0001223 256.1046  63.6506 15.35490008  6060"
      },
      "geometry": {
        "type": "Point",
        "coordinates": [
          161.53599765909274,
          38.5430563198401
        ]
      }
    },
    {
      "type": "Feature",
      "properties": {
        "norad_id": 66558,
        "name": "STARLINK-35695",
        "group": "last-30-days",
        "lat": 31.136422611078828,
        "lon": 179.83385777383882,
        "alt_km": 457.29753121158865,
        "timestamp": "2025-12-26T14:28:46.393390+00:00",
        "meta_object_name": "STARLINK-35695",
        "meta_object_id": "2025-268B",
        "meta_epoch": "2025-12-26T06:00:02.999808",
        "meta_mean_motion": 15.36330401,
        "meta_eccentricity": 0.00013275,
        "meta_inclination": 43.0004,
        "meta_ra_of_asc_node": 42.2657,
        "meta_arg_of_pericenter": 259.3553,
        "meta_mean_anomaly": 76.0484,
        "meta_ephemeris_type": 0,
        "meta_classification_type": "U",
        "meta_norad_cat_id": 66558,
        "meta_element_set_no": 999,
        "meta_rev_at_epoch": 606,
        "meta_bstar": -0.062724567,
        "meta_mean_motion_dot": -0.0201756,
        "meta_mean_motion_ddot": 0,
        "tle_line1": "1 66558U 25268B   25360.25003472 -.02017560  00000+0 -62725-1 0  9997",
        "tle_line2": "2 66558  43.0004  42.2657 0001327 259.3553  76.0484 15.36330401  6061"
      },
      "geometry": {
        "type": "Point",
        "coordinates": [
          179.83385777383882,
          31.136422611078828
        ]
      }
    },
    {
      "type": "Feature",
      "properties": {
        "norad_id": 66559,
        "name": "STARLINK-35419",
        "group": "last-30-days",
        "lat": -20.596948874305838,
        "lon": -116.16740191883072,
        "alt_km": 447.96073212977353,
        "timestamp": "2025-12-26T14:28:46.393402+00:00",
        "meta_object_name": "STARLINK-35419",
        "meta_object_id": "2025-268C",
        "meta_epoch": "2025-12-26T06:00:02.999808",
        "meta_mean_motion": 15.41482916,
        "meta_eccentricity": 0.00014388,
        "meta_inclination": 43.0012,
        "meta_ra_of_asc_node": 42.0853,
        "meta_arg_of_pericenter": 273.2794,
        "meta_mean_anomaly": 135.9521,
        "meta_ephemeris_type": 0,
        "meta_classification_type": "U",
        "meta_norad_cat_id": 66559,
        "meta_element_set_no": 999,
        "meta_rev_at_epoch": 606,
        "meta_bstar": -0.054356976,
        "meta_mean_motion_dot": -0.02067428,
        "meta_mean_motion_ddot": 0,
        "tle_line1": "1 66559U 25268C   25360.25003472 -.02067428  00000+0 -54357-1 0  9998",
        "tle_line2": "2 66559  43.0012  42.0853 0001438 273.2794 135.9521 15.41482916  6064"
      },
      "geometry": {
        "type": "Point",
        "coordinates": [
          -116.16740191883072,
          -20.596948874305838
        ]
      }
    },
    {
      "type": "Feature",
      "properties": {
        "norad_id": 66560,
        "name": "STARLINK-35411",
        "group": "last-30-days",
        "lat": -25.924244791578932,
        "lon": -108.53070695998439,
        "alt_km": 446.6151884196597,
        "timestamp": "2025-12-26T14:28:46.393413+00:00",
        "meta_object_name": "STARLINK-35411",
        "meta_object_id": "2025-268D",
        "meta_epoch": "2025-12-26T06:00:02.999808",
        "meta_mean_motion": 15.42013867,
        "meta_eccentricity": 0.00013538,
        "meta_inclination": 43.0008,
        "meta_ra_of_asc_node": 42.0654,
        "meta_arg_of_pericenter": 269.4979,
        "meta_mean_anomaly": 147.8802,
        "meta_ephemeris_type": 0,
        "meta_classification_type": "U",
        "meta_norad_cat_id": 66560,
        "meta_element_set_no": 999,
        "meta_rev_at_epoch": 606,
        "meta_bstar": -0.053313418,
        "meta_mean_motion_dot": -0.02064707,
        "meta_mean_motion_ddot": 0,
        "tle_line1": "1 66560U 25268D   25360.25003472 -.02064707  00000+0 -53313-1 0  9998",
        "tle_line2": "2 66560  43.0008  42.0654 0001353 269.4979 147.8802 15.42013867  6068"
      },
      "geometry": {
        "type": "Point",
        "coordinates": [
          -108.53070695998439,
          -25.924244791578932
        ]
      }
    }
  ]
}